NOAA 17                 
1 27453U 02032A   26064.88733439  .00000348  00000+0  16431-3 0  9993
2 27453  98.8535  29.4768 0010655 293.8859  66.1204 14.26186736232266
NOAA 18                 
1 28654U 05018A   26064.79071487  .00000094  00000+0  72877-4 0  9997
2 28654  98.8162 145.9526 0015343  85.8002 274.4923 14.13709965 71703
NOAA 19                 
1 33591U 09005A   26064.77121400  .00000086  00000+0  69764-4 0  9994
2 33591  98.9614 135.5356 0013043 326.4318  33.6027 14.13455999879876
SUOMI NPP               
1 37849U 11061A   26064.79608631  .00000158  00000+0  96117-4 0  9999
2 37849  98.7866   6.4298 0000399 267.7572  92.3558 14.19542345743771
NOAA 20 (JPSS-1)        
1 43013U 17073A   26064.81073798  .00000131  00000+0  83084-4 0  9991
2 43013  98.7689   5.2366 0001033 142.6447 217.4801 14.19534961429806
NOAA 21 (JPSS-2)        
1 54234U 22150A   26064.77500410  .00000129  00000+0  82230-4 0  9990
2 54234  98.7551   5.0858 0002577 113.5197 246.6250 14.19550951171878
