[{"OBJECT_NAME":"NOAA 17","OBJECT_ID":"2002-032A","EPOCH":"2026-03-05T21:17:45.691296","MEAN_MOTION":14.26186736,"ECCENTRICITY":0.0010655,"INCLINATION":98.8535,"RA_OF_ASC_NODE":29.4768,"ARG_OF_PERICENTER":293.8859,"MEAN_ANOMALY":66.1204,"EPHEMERIS_TYPE":0,"CLASSIFICATION_TYPE":"U","NORAD_CAT_ID":27453,"ELEMENT_SET_NO":999,"REV_AT_EPOCH":23226,"BSTAR":0.00016431,"MEAN_MOTION_DOT":3.48e-6,"MEAN_MOTION_DDOT":0},{"OBJECT_NAME":"NOAA 18","OBJECT_ID":"2005-018A","EPOCH":"2026-03-05T18:58:37.764768","MEAN_MOTION":14.13709965,"ECCENTRICITY":0.0015343,"INCLINATION":98.8162,"RA_OF_ASC_NODE":145.9526,"ARG_OF_PERICENTER":85.8002,"MEAN_ANOMALY":274.4923,"EPHEMERIS_TYPE":0,"CLASSIFICATION_TYPE":"U","NORAD_CAT_ID":28654,"ELEMENT_SET_NO":999,"REV_AT_EPOCH":7170,"BSTAR":7.2877e-5,"MEAN_MOTION_DOT":9.4e-7,"MEAN_MOTION_DDOT":0},{"OBJECT_NAME":"NOAA 19","OBJECT_ID":"2009-005A","EPOCH":"2026-03-05T18:30:32.889600","MEAN_MOTION":14.13455999,"ECCENTRICITY":0.0013043,"INCLINATION":98.9614,"RA_OF_ASC_NODE":135.5356,"ARG_OF_PERICENTER":326.4318,"MEAN_ANOMALY":33.6027,"EPHEMERIS_TYPE":0,"CLASSIFICATION_TYPE":"U","NORAD_CAT_ID":33591,"ELEMENT_SET_NO":999,"REV_AT_EPOCH":87987,"BSTAR":6.9764e-5,"MEAN_MOTION_DOT":8.6e-7,"MEAN_MOTION_DDOT":0},{"OBJECT_NAME":"SUOMI NPP","OBJECT_ID":"2011-061A","EPOCH":"2026-03-05T19:06:21.857184","MEAN_MOTION":14.19542345,"ECCENTRICITY":3.99e-5,"INCLINATION":98.7866,"RA_OF_ASC_NODE":6.4298,"ARG_OF_PERICENTER":267.7572,"MEAN_ANOMALY":92.3558,"EPHEMERIS_TYPE":0,"CLASSIFICATION_TYPE":"U","NORAD_CAT_ID":37849,"ELEMENT_SET_NO":999,"REV_AT_EPOCH":74377,"BSTAR":9.6117e-5,"MEAN_MOTION_DOT":1.58e-6,"MEAN_MOTION_DDOT":0},{"OBJECT_NAME":"NOAA 20 (JPSS-1)","OBJECT_ID":"2017-073A","EPOCH":"2026-03-05T19:27:27.761472","MEAN_MOTION":14.19534961,"ECCENTRICITY":0.0001033,"INCLINATION":98.7689,"RA_OF_ASC_NODE":5.2366,"ARG_OF_PERICENTER":142.6447,"MEAN_ANOMALY":217.4801,"EPHEMERIS_TYPE":0,"CLASSIFICATION_TYPE":"U","NORAD_CAT_ID":43013,"ELEMENT_SET_NO":999,"REV_AT_EPOCH":42980,"BSTAR":8.3084e-5,"MEAN_MOTION_DOT":1.31e-6,"MEAN_MOTION_DDOT":0},{"OBJECT_NAME":"NOAA 21 (JPSS-2)","OBJECT_ID":"2022-150A","EPOCH":"2026-03-05T18:36:00.354240","MEAN_MOTION":14.19550951,"ECCENTRICITY":0.0002577,"INCLINATION":98.7551,"RA_OF_ASC_NODE":5.0858,"ARG_OF_PERICENTER":113.5197,"MEAN_ANOMALY":246.625,"EPHEMERIS_TYPE":0,"CLASSIFICATION_TYPE":"U","NORAD_CAT_ID":54234,"ELEMENT_SET_NO":999,"REV_AT_EPOCH":17187,"BSTAR":8.223e-5,"MEAN_MOTION_DOT":1.29e-6,"MEAN_MOTION_DDOT":0}]
